{
  "norad_id": 61906,
  "name": "2024-205N",
  "history": [
    {
      "epoch": "2026-03-28T22:05:41.197344Z",
      "apogee_km": 467.1094178036901,
      "perigee_km": 456.503128166868,
      "latitude_deg": -2.9664401712175517e-05,
      "longitude_deg": 10.253712057270056,
      "height_km": 460.49961232947845,
      "semi_major_axis_km": 6839.943272985279,
      "eccentricity": 0.00077532,
      "inclination_deg": 97.4193,
      "raan_deg": 168.0095,
      "arg_perigee_deg": 326.4689,
      "mean_anomaly_deg": 33.6062,
      "mean_motion_rev_day": 15.34701834
    },
    {
      "epoch": "2026-03-29T04:21:14.689728Z",
      "apogee_km": 467.07777797496055,
      "perigee_km": 456.4485731021741,
      "latitude_deg": 1.1039249405917106e-05,
      "longitude_deg": -83.63040521059204,
      "height_km": 460.5051526848325,
      "semi_major_axis_km": 6839.900175538567,
      "eccentricity": 0.000777,
      "inclination_deg": 97.4194,
      "raan_deg": 168.272,
      "arg_perigee_deg": 325.3524,
      "mean_anomaly_deg": 34.7212,
      "mean_motion_rev_day": 15.34716339
    },
    {
      "epoch": "2026-03-30T05:23:26.323008Z",
      "apogee_km": 466.84584065220315,
      "perigee_km": 456.3126776131394,
      "latitude_deg": 4.795115333009307e-05,
      "longitude_deg": -99.1577964954678,
      "height_km": 460.5980729511562,
      "semi_major_axis_km": 6839.716259132671,
      "eccentricity": 0.00077,
      "inclination_deg": 97.4194,
      "raan_deg": 169.3213,
      "arg_perigee_deg": 321.0501,
      "mean_anomaly_deg": 39.0187,
      "mean_motion_rev_day": 15.34778241
    },
    {
      "epoch": "2026-03-30T06:57:19.432800Z",
      "apogee_km": 466.8097704733973,
      "perigee_km": 456.3275111964804,
      "latitude_deg": 3.4035051191431575e-05,
      "longitude_deg": -122.6278475287972,
      "height_km": 460.6293836346631,
      "semi_major_axis_km": 6839.705640834939,
      "eccentricity": 0.00076628,
      "inclination_deg": 97.4195,
      "raan_deg": 169.3868,
      "arg_perigee_deg": 320.6672,
      "mean_anomaly_deg": 39.4014,
      "mean_motion_rev_day": 15.34781815
    },
    {
      "epoch": "2026-03-30T14:46:44.809824Z",
      "apogee_km": 466.7278019074911,
      "perigee_km": 456.3078613576927,
      "latitude_deg": -4.1531277918730536e-05,
      "longitude_deg": 120.022916441656,
      "height_km": 460.69635906017214,
      "semi_major_axis_km": 6839.654831632592,
      "eccentricity": 0.00076173,
      "inclination_deg": 97.4196,
      "raan_deg": 169.7146,
      "arg_perigee_deg": 319.0714,
      "mean_anomaly_deg": 40.9956,
      "mean_motion_rev_day": 15.34798917
    },
    {
      "epoch": "2026-03-30T22:36:09.838656Z",
      "apogee_km": 466.68460696975944,
      "perigee_km": 456.24368223847614,
      "latitude_deg": -1.2215913489787913e-05,
      "longitude_deg": 2.6754216017175856,
      "height_km": 460.7098341011467,
      "semi_major_axis_km": 6839.6011446041175,
      "eccentricity": 0.00076327,
      "inclination_deg": 97.4194,
      "raan_deg": 170.0427,
      "arg_perigee_deg": 317.8313,
      "mean_anomaly_deg": 42.2342,
      "mean_motion_rev_day": 15.34816988
    },
    {
      "epoch": "2026-03-31T20:30:30.305952Z",
      "apogee_km": 466.5434910771928,
      "perigee_km": 456.10100469751796,
      "latitude_deg": 4.84885066246521e-05,
      "longitude_deg": 34.108600076899755,
      "height_km": 460.8267105123109,
      "semi_major_axis_km": 6839.459247887355,
      "eccentricity": 0.0007634,
      "inclination_deg": 97.4193,
      "raan_deg": 170.9608,
      "arg_perigee_deg": 313.7552,
      "mean_anomaly_deg": 46.3059,
      "mean_motion_rev_day": 15.34864752
    }
  ]
}